start=new Date('2022-05-24T00:00:00.000Z').valueOf();
sats=[{"MEAN_MOTION":"15.06397856","OBJECT_TYPE":"PAYLOAD","ARG_OF_PERICENTER":"71.2162","REF_FRAME":"TEME","PERIAPSIS":"546.143","ECCENTRICITY":"0.00015560","OBJECT_NAME":"STARLINK-2476","RCS_SIZE":"LARGE","PERIOD":"95.592","MEAN_ELEMENT_THEORY":"SGP4","EPHEMERIS_TYPE":"0","TLE_LINE2":"2 48134  53.0562 273.7955 0001556  71.2162 288.8995 15.06397856 63500","FILE":"3460905","MEAN_MOTION_DOT":"-0.00000437","ELEMENT_SET_NO":"999","COUNTRY_CODE":"US","DECAY_DATE":null,"REV_AT_EPOCH":"6350","MEAN_MOTION_DDOT":"0.0000000000000","OBJECT_ID":"2021-027AU","GP_ID":"204364913","TLE_LINE1":"1 48134U 21027AU  22143.65124284 -.00000437  00000-0 -10421-4 0  9994","NORAD_CAT_ID":"48134","TIME_SYSTEM":"UTC","INCLINATION":"53.0562","APOAPSIS":"548.298","EPOCH":"2022-05-23T15:37:47.381376","SITE":"AFETR","BSTAR":"-0.00001042100000","CENTER_NAME":"EARTH","RA_OF_ASC_NODE":"273.7955","LAUNCH_DATE":"2021-04-07","MEAN_ANOMALY":"288.8995","CLASSIFICATION_TYPE":"U","SEMIMAJOR_AXIS":"6925.355"},{"GP_ID":"204365162","TLE_LINE1":"1 48135U 21027AV  22143.63693685  .00001158  00000-0  96680-4 0  9999","NORAD_CAT_ID":"48135","TIME_SYSTEM":"UTC","INCLINATION":"53.0556","APOAPSIS":"548.444","EPOCH":"2022-05-23T15:17:11.343840","SITE":"AFETR","BSTAR":"0.00009668000000","CENTER_NAME":"EARTH","LAUNCH_DATE":"2021-04-07","RA_OF_ASC_NODE":"278.8536","MEAN_ANOMALY":"282.8973","CLASSIFICATION_TYPE":"U","SEMIMAJOR_AXIS":"6925.368","MEAN_MOTION":"15.06393614","OBJECT_TYPE":"PAYLOAD","ARG_OF_PERICENTER":"77.2211","REF_FRAME":"TEME","PERIAPSIS":"546.022","ECCENTRICITY":"0.00017490","OBJECT_NAME":"STARLINK-2478","RCS_SIZE":"LARGE","PERIOD":"95.593","EPHEMERIS_TYPE":"0","MEAN_ELEMENT_THEORY":"SGP4","MEAN_MOTION_DOT":"0.00001158","TLE_LINE2":"2 48135  53.0556 278.8536 0001749  77.2211 282.8973 15.06393614 63430","FILE":"3460905","ELEMENT_SET_NO":"999","DECAY_DATE":null,"COUNTRY_CODE":"US","REV_AT_EPOCH":"6343","OBJECT_ID":"2021-027AV","MEAN_MOTION_DDOT":"0.0000000000000"},{"NORAD_CAT_ID":"48136","TLE_LINE1":"1 48136U 21027AW  22143.87608956  .00000556  00000-0  56200-4 0  9998","GP_ID":"204365910","EPOCH":"2022-05-23T21:01:34.137984","SITE":"AFETR","APOAPSIS":"548.270","TIME_SYSTEM":"UTC","INCLINATION":"53.0546","CLASSIFICATION_TYPE":"U","MEAN_ANOMALY":"293.9223","CENTER_NAME":"EARTH","RA_OF_ASC_NODE":"272.7836","LAUNCH_DATE":"2021-04-07","BSTAR":"0.00005620000000","SEMIMAJOR_AXIS":"6925.370","OBJECT_TYPE":"PAYLOAD","MEAN_MOTION":"15.06392992","ECCENTRICITY":"0.00014940","PERIAPSIS":"546.200","ARG_OF_PERICENTER":"66.1923","REF_FRAME":"TEME","PERIOD":"95.593","OBJECT_NAME":"STARLINK-2479","RCS_SIZE":"LARGE","MEAN_MOTION_DDOT":"0.0000000000000","OBJECT_ID":"2021-027AW","DECAY_DATE":null,"COUNTRY_CODE":"US","REV_AT_EPOCH":"6354","ELEMENT_SET_NO":"999","MEAN_ELEMENT_THEORY":"SGP4","EPHEMERIS_TYPE":"0","FILE":"3460905","TLE_LINE2":"2 48136  53.0546 272.7836 0001494  66.1923 293.9223 15.06392992 63541","MEAN_MOTION_DOT":"0.00000556"},{"GP_ID":"204330048","TLE_LINE1":"1 48137U 21027AX  22143.56830290 -.00000415  00000-0 -89319-5 0  9997","NORAD_CAT_ID":"48137","TIME_SYSTEM":"UTC","INCLINATION":"53.0565","APOAPSIS":"548.389","EPOCH":"2022-05-23T13:38:21.370560","SITE":"AFETR","BSTAR":"-0.00000893190000","CENTER_NAME":"EARTH","LAUNCH_DATE":"2021-04-07","RA_OF_ASC_NODE":"254.1334","CLASSIFICATION_TYPE":"U","MEAN_ANOMALY":"303.8763","SEMIMAJOR_AXIS":"6925.358","MEAN_MOTION":"15.06396778","OBJECT_TYPE":"PAYLOAD","ARG_OF_PERICENTER":"56.2386","REF_FRAME":"TEME","PERIAPSIS":"546.058","ECCENTRICITY":"0.00016830","OBJECT_NAME":"STARLINK-2480","RCS_SIZE":"LARGE","PERIOD":"95.592","MEAN_ELEMENT_THEORY":"SGP4","EPHEMERIS_TYPE":"0","FILE":"3460386","TLE_LINE2":"2 48137  53.0565 254.1334 0001683  56.2386 303.8763 15.06396778 63774","MEAN_MOTION_DOT":"-0.00000415","ELEMENT_SET_NO":"999","COUNTRY_CODE":"US","DECAY_DATE":null,"REV_AT_EPOCH":"6377","MEAN_MOTION_DDOT":"0.0000000000000","OBJECT_ID":"2021-027AX"},{"MEAN_ELEMENT_THEORY":"SGP4","EPHEMERIS_TYPE":"0","FILE":"3460905","TLE_LINE2":"2 48138  53.0541 272.8576 0001628  72.0004 288.1162 15.06394178 63541","MEAN_MOTION_DOT":"0.00004445","ELEMENT_SET_NO":"999","COUNTRY_CODE":"US","DECAY_DATE":null,"REV_AT_EPOCH":"6354","OBJECT_ID":"2021-027AY","MEAN_MOTION_DDOT":"0.0000000000000","RCS_SIZE":"LARGE","OBJECT_NAME":"STARLINK-2481","PERIOD":"95.593","ARG_OF_PERICENTER":"72.0004","REF_FRAME":"TEME","PERIAPSIS":"546.104","ECCENTRICITY":"0.00016280","MEAN_MOTION":"15.06394178","OBJECT_TYPE":"PAYLOAD","SEMIMAJOR_AXIS":"6925.366","BSTAR":"0.00031718000000","CENTER_NAME":"EARTH","RA_OF_ASC_NODE":"272.8576","LAUNCH_DATE":"2021-04-07","MEAN_ANOMALY":"288.1162","CLASSIFICATION_TYPE":"U","TIME_SYSTEM":"UTC","INCLINATION":"53.0541","APOAPSIS":"548.359","EPOCH":"2022-05-23T20:40:20.015328","SITE":"AFETR","TLE_LINE1":"1 48138U 21027AY  22143.86134277  .00004445  00000-0  31718-3 0  9996","GP_ID":"204364414","NORAD_CAT_ID":"48138"},{"MEAN_MOTION":"15.06405651","OBJECT_TYPE":"PAYLOAD","REF_FRAME":"TEME","ARG_OF_PERICENTER":"71.4805","PERIAPSIS":"546.220","ECCENTRICITY":"0.00014100","RCS_SIZE":"LARGE","OBJECT_NAME":"STARLINK-2482","PERIOD":"95.592","TLE_LINE2":"2 48139  53.0552 253.1871 0001410  71.4805 288.6337 15.06405651 63419","MEAN_MOTION_DOT":"0.00000884","FILE":"3460625","MEAN_ELEMENT_THEORY":"SGP4","EPHEMERIS_TYPE":"0","ELEMENT_SET_NO":"999","REV_AT_EPOCH":"6341","COUNTRY_CODE":"US","DECAY_DATE":null,"OBJECT_ID":"2021-027AZ","MEAN_MOTION_DDOT":"0.0000000000000","GP_ID":"204337996","TLE_LINE1":"1 48139U 21027AZ  22143.78578348  .00000884  00000-0  78199-4 0  9997","NORAD_CAT_ID":"48139","INCLINATION":"53.0552","TIME_SYSTEM":"UTC","APOAPSIS":"548.173","SITE":"AFETR","EPOCH":"2022-05-23T18:51:31.692672","BSTAR":"0.00007819900000","RA_OF_ASC_NODE":"253.1871","LAUNCH_DATE":"2021-04-07","CENTER_NAME":"EARTH","MEAN_ANOMALY":"288.6337","CLASSIFICATION_TYPE":"U","SEMIMAJOR_AXIS":"6925.331"},{"NORAD_CAT_ID":"48140","TLE_LINE1":"1 48140U 21027BA  22143.68715669  .00000637  00000-0  61639-4 0  9994","GP_ID":"204365411","SITE":"AFETR","EPOCH":"2022-05-23T16:29:30.338016","INCLINATION":"53.0546","TIME_SYSTEM":"UTC","APOAPSIS":"548.317","LAUNCH_DATE":"2021-04-07","RA_OF_ASC_NODE":"273.6354","CENTER_NAME":"EARTH","MEAN_ANOMALY":"289.7112","CLASSIFICATION_TYPE":"U","BSTAR":"0.00006163900000","SEMIMAJOR_AXIS":"6925.374","OBJECT_TYPE":"PAYLOAD","MEAN_MOTION":"15.06391668","ECCENTRICITY":"0.00015560","REF_FRAME":"TEME","ARG_OF_PERICENTER":"70.4045","PERIAPSIS":"546.162","PERIOD":"95.593","RCS_SIZE":"LARGE","OBJECT_NAME":"STARLINK-2483","REV_AT_EPOCH":"6351","COUNTRY_CODE":"US","DECAY_DATE":null,"OBJECT_ID":"2021-027BA","MEAN_MOTION_DDOT":"0.0000000000000","TLE_LINE2":"2 48140  53.0546 273.6354 0001556  70.4045 289.7112 15.06391668 63519","FILE":"3460905","MEAN_MOTION_DOT":"0.00000637","EPHEMERIS_TYPE":"0","MEAN_ELEMENT_THEORY":"SGP4","ELEMENT_SET_NO":"999"},{"BSTAR":"-0.00004691500000","MEAN_ANOMALY":"298.3344","CLASSIFICATION_TYPE":"U","RA_OF_ASC_NODE":"273.2226","LAUNCH_DATE":"2021-04-07","CENTER_NAME":"EARTH","SEMIMAJOR_AXIS":"6925.367","GP_ID":"204337519","TLE_LINE1":"1 48141U 21027BB  22143.77656480 -.00000980  00000-0 -46915-4 0  9993","NORAD_CAT_ID":"48141","APOAPSIS":"548.529","INCLINATION":"53.0534","TIME_SYSTEM":"UTC","SITE":"AFETR","EPOCH":"2022-05-23T18:38:15.198720","RCS_SIZE":"LARGE","OBJECT_NAME":"STARLINK-2484","PERIOD":"95.593","ELEMENT_SET_NO":"999","MEAN_MOTION_DOT":"-0.00000980","TLE_LINE2":"2 48141  53.0534 273.2226 0001872  61.7834 298.3344 15.06393861 63139","FILE":"3460638","MEAN_ELEMENT_THEORY":"SGP4","EPHEMERIS_TYPE":"0","OBJECT_ID":"2021-027BB","MEAN_MOTION_DDOT":"0.0000000000000","REV_AT_EPOCH":"6313","DECAY_DATE":null,"COUNTRY_CODE":"US","MEAN_MOTION":"15.06393861","OBJECT_TYPE":"PAYLOAD","PERIAPSIS":"545.936","REF_FRAME":"TEME","ARG_OF_PERICENTER":"61.7834","ECCENTRICITY":"0.00018720"},{"EPOCH":"2022-05-23T15:35:08.598912","SITE":"AFETR","APOAPSIS":"548.364","TIME_SYSTEM":"UTC","INCLINATION":"53.0554","NORAD_CAT_ID":"48142","TLE_LINE1":"1 48142U 21027BC  22143.64940508 -.00000874  00000-0 -39784-4 0  9995","GP_ID":"204364914","SEMIMAJOR_AXIS":"6925.353","CLASSIFICATION_TYPE":"U","MEAN_ANOMALY":"285.9742","CENTER_NAME":"EARTH","LAUNCH_DATE":"2021-04-07","RA_OF_ASC_NODE":"253.8064","BSTAR":"-0.00003978400000","ECCENTRICITY":"0.00016550","PERIAPSIS":"546.072","ARG_OF_PERICENTER":"74.1429","REF_FRAME":"TEME","OBJECT_TYPE":"PAYLOAD","MEAN_MOTION":"15.06398632","MEAN_MOTION_DDOT":"0.0000000000000","OBJECT_ID":"2021-027BC","DECAY_DATE":null,"COUNTRY_CODE":"US","REV_AT_EPOCH":"6379","ELEMENT_SET_NO":"999","MEAN_ELEMENT_THEORY":"SGP4","EPHEMERIS_TYPE":"0","TLE_LINE2":"2 48142  53.0554 253.8064 0001655  74.1429 285.9742 15.06398632 63790","FILE":"3460905","MEAN_MOTION_DOT":"-0.00000874","PERIOD":"95.592","RCS_SIZE":"LARGE","OBJECT_NAME":"STARLINK-2485"},{"SEMIMAJOR_AXIS":"6925.353","BSTAR":"0.00000604110000","LAUNCH_DATE":"2021-04-07","RA_OF_ASC_NODE":"207.6904","CENTER_NAME":"EARTH","CLASSIFICATION_TYPE":"U","MEAN_ANOMALY":"290.4705","INCLINATION":"53.0544","TIME_SYSTEM":"UTC","APOAPSIS":"548.526","SITE":"AFETR","EPOCH":"2022-05-23T21:32:42.681408","TLE_LINE1":"1 48143U 21027BD  22143.89771622 -.00000192  00000-0  60411-5 0  9996","GP_ID":"204365163","NORAD_CAT_ID":"48143","TLE_LINE2":"2 48143  53.0544 207.6904 0001889  69.6487 290.4705 15.06398549 64453","FILE":"3460905","MEAN_MOTION_DOT":"-0.00000192","MEAN_ELEMENT_THEORY":"SGP4","EPHEMERIS_TYPE":"0","ELEMENT_SET_NO":"999","REV_AT_EPOCH":"6445","COUNTRY_CODE":"US","DECAY_DATE":null,"OBJECT_ID":"2021-027BD","MEAN_MOTION_DDOT":"0.0000000000000","OBJECT_NAME":"STARLINK-2486","RCS_SIZE":"LARGE","PERIOD":"95.592","REF_FRAME":"TEME","ARG_OF_PERICENTER":"69.6487","PERIAPSIS":"545.910","ECCENTRICITY":"0.00018890","MEAN_MOTION":"15.06398549","OBJECT_TYPE":"PAYLOAD"}];
